[{"OBJECT_NAME":"FLOCK 4G-8","OBJECT_ID":"2025-009E","EPOCH":"2026-03-09T17:22:17.546016","MEAN_MOTION":15.27623414,"ECCENTRICITY":0.00030503,"INCLINATION":97.4045,"RA_OF_ASC_NODE":151.2834,"ARG_OF_PERICENTER":315.2538,"MEAN_ANOMALY":44.8455,"EPHEMERIS_TYPE":0,"CLASSIFICATION_TYPE":"U","NORAD_CAT_ID":62613,"ELEMENT_SET_NO":999,"REV_AT_EPOCH":6372,"BSTAR":0.0005043806,"MEAN_MOTION_DOT":0.00013559,"MEAN_MOTION_DDOT":0},{"OBJECT_NAME":"STARLINK-32758","OBJECT_ID":"2025-014K","EPOCH":"2026-03-09T06:26:00.363264","MEAN_MOTION":15.27595828,"ECCENTRICITY":7.965e-5,"INCLINATION":42.9949,"RA_OF_ASC_NODE":160.1651,"ARG_OF_PERICENTER":262.5243,"MEAN_ANOMALY":97.5518,"EPHEMERIS_TYPE":0,"CLASSIFICATION_TYPE":"U","NORAD_CAT_ID":62744,"ELEMENT_SET_NO":999,"REV_AT_EPOCH":6315,"BSTAR":0.00067211905,"MEAN_MOTION_DOT":0.00018288,"MEAN_MOTION_DDOT":0}]
